{"fetched_at":"2026-03-29T16:36:15Z","count":15609,"tles":[{"name":"STARLINK-11162 [DTC]","line1":"1 60123U 24118L   26087.82957714 -.00000013  00000+0  47674-5 0  9991","line2":"2 60123  53.1587 126.5995 0002024  76.4835 283.6409 15.69696718101003","category":"Starlink"}]}